141P-D/Machholz,e,13.8345,153.2188,242.1811,3.064839,0.1836930,0.73671484,357.1326,05/03.0/2026,2000,g 12.0,12.0
# From MPC186636
141P-H/Machholz,e,14.0165,241.8472,153.6263,3.045858,0.1854127,0.73459809,5.7881,05/03.0/2026,2000,g 18.5,4.0
# From MPEC 2022-SU8
141P-I/Machholz,e,13.9428,153.4494,241.9491,3.047147,0.1852951,0.73506523,3.5898,05/03.0/2026,2000,g 17.5,4.0
# From MPC191605
142P/Ge-Wang,e,12.2429,175.9631,174.0187,5.003444,0.0880644,0.49568745,160.1948,05/03.0/2026,2000,g  8.5,6.0
# From MPEC 2026-FR0
143P/Kowal-Mrkos,e,5.3942,242.0179,304.8815,4.750021,0.0952052,0.37749683,337.2237,05/03.0/2026,2000,g 13.5,2.0
# From MPC191605
144P/Kushida,e,3.9305,242.9223,216.3938,3.835216,0.1312258,0.63487108,108.6726,05/03.0/2026,2000,g  8.5,8.0
# From MPEC 2026-FR0
145P/Shoemaker-Levy,e,11.2780,26.7655,10.4282,4.129816,0.1174378,0.54241717,10.6926,05/03.0/2026,2000,g 13.5,4.0
# From MPC191606
146P/Shoemaker-LINEAR,e,23.1180,53.3100,317.0091,4.021003,0.1222369,0.64763166,77.7024,05/03.0/2026,2000,g 15.0,4.0
# From MPC191606
147P/Kushida-Muramatsu,e,2.3112,91.6671,348.6624,4.009798,0.1227497,0.21147427,107.7760,05/03.0/2026,2000,g 14.0,4.0
# From MPC191606
148P/Anderson-LINEAR,e,3.6584,89.1937,8.1050,3.620297,0.1430829,0.55034293,202.9347,05/03.0/2026,2000,g 16.0,2.0
# From MPC191606
149P/Mueller,e,34.2659,143.6968,30.0242,4.135632,0.1171902,0.32456139,333.4612,05/03.0/2026,2000,g  8.0,8.0
# From MPC191606
150P/LONEOS,e,18.5466,272.0523,246.1325,3.872388,0.1293409,0.54941253,101.0521,05/03.0/2026,2000,g 13.5,4.0
# From MPC191606
151P/Helin,e,4.7217,143.0509,216.1838,5.768960,0.0711308,0.57208807,274.3991,05/03.0/2026,2000,g 10.0,6.0
# From MPC191606
152P/Helin-Lawrence,e,9.8795,91.7768,164.3670,4.486335,0.1037210,0.30640495,163.0906,05/03.0/2026,2000,g 11.5,4.0
# From MPC191606
154P/Brewington,e,17.6408,342.9950,47.9002,4.792137,0.0939529,0.67609621,64.7290,05/03.0/2026,2000,g  2.5,12.0
# From MPC191607
156P/Russell-LINEAR,e,17.2553,35.3201,0.5338,3.462650,0.1529647,0.61466386,304.5306,05/03.0/2026,2000,g 15.5,2.0
# From MPC191607
157P/Tritton,e,12.4252,287.4957,155.2020,3.548498,0.1474474,0.55661733,196.2031,05/03.0/2026,2000,g 10.0,4.0
# From MPEC 2022-VC5
157P-B/Tritton,e,12.4275,153.8615,287.2464,3.102744,0.1803371,0.49977801,240.2615,05/03.0/2026,2000,g 15.7,4.0
# From MPC191607
158P/Kowal-LINEAR,e,7.5044,124.1395,235.1897,5.746521,0.0715478,0.11342822,91.7978,05/03.0/2026,2000,g  9.0,4.0
# From MPC191607
159P/LONEOS,e,23.4732,54.9342,4.7639,5.856813,0.0695364,0.38211027,201.5764,05/03.0/2026,2000,g 10.0,4.0
# From MPC191607
160P/LINEAR,e,15.5888,333.3110,12.7780,3.780969,0.1340601,0.52486203,314.5234,05/03.0/2026,2000,g 15.5,2.0
# From MPC191607
161P/Hartley-IRAS,e,95.7902,1.4762,47.0715,7.721495,0.0459359,0.83615604,350.4218,05/03.0/2026,2000,g  8.5,6.0
# From MPC191607
162P/SidingSpring,e,27.5524,30.8673,357.2523,3.091057,0.1813608,0.58282363,357.3074,05/03.0/2026,2000,g 12.0,4.0
# From MPC191607
163P/NEAT,e,12.7243,102.0667,349.6897,3.759364,0.1352174,0.45344071,332.2770,05/03.0/2026,2000,g 14.5,4.0
# From MPEC 2026-G41
164P/Christensen,e,16.2755,88.2612,325.8963,3.650598,0.1413052,0.54137110,48.1402,05/03.0/2026,2000,g 11.0,4.0
# From MPC191608
165P/LINEAR,e,15.9159,0.5902,126.0031,17.81822,0.0131041,0.61957982,123.7698,05/03.0/2026,2000,g 11.5,2.0
# From MPC191608
166P/NEAT,e,15.3826,64.3495,321.9902,13.85527,0.0191109,0.38158500,167.0481,05/03.0/2026,2000,g  5.5,4.0
# From MPC191608
167P/CINEOS,e,19.0721,295.8452,344.2142,16.23909,0.0150613,0.26807396,138.2550,05/03.0/2026,2000,g  9.5,2.0
# From MPC191608
168P/Hergenrother,e,21.5952,355.3778,15.0981,3.585502,0.1451707,0.62101277,356.6174,05/03.0/2026,2000,g 15.5,4.0
# From MPC191608
169P/NEAT,e,11.2848,176.0359,218.1362,2.603676,0.2345977,0.76790715,326.8310,05/03.0/2026,2000,g 16.0,2.0
# From MPC191608
170P/Christensen,e,10.1374,142.6382,224.4873,4.188918,0.1149612,0.30569715,128.0875,05/03.0/2026,2000,g 12.0,4.0
# From MPEC 2026-E44
171P/Spahr,e,21.9546,101.6922,347.0418,3.552045,0.1472266,0.50276610,32.3954,05/03.0/2026,2000,g 13.5,4.0
# From MPC191608
172P/Yeung,e,11.2211,30.8756,208.8657,4.225376,0.1134765,0.20524534,20.6161,05/03.0/2026,2000,g 13.0,4.0
# From MPC191608
173P/Mueller,e,16.4933,100.3457,29.3893,5.717900,0.0720857,0.26244896,115.0576,05/03.0/2026,2000,g  7.5,4.0
# From MPEC 2026-FC3
175P/Hergenrother,e,4.9295,109.7951,74.5949,3.688669,0.1391232,0.37453406,342.8604,05/03.0/2026,2000,g 14.0,4.0
# From MPC191609
178P/Hug-Bell,e,11.0926,102.7839,297.9654,3.632553,0.1423594,0.48207263,300.9825,05/03.0/2026,2000,g 13.5,4.0
# From MPEC 2026-E43
179P/Jedicke,e,19.8890,115.5040,297.2602,5.938243,0.0681110,0.30496758,97.5758,05/03.0/2026,2000,g  2.5,8.0
# From MPC191609
180P/NEAT,e,16.8601,84.5484,94.6001,3.867124,0.1296050,0.35415152,132.9144,05/03.0/2026,2000,g 11.0,4.0
# From MPC191609
181P/Shoemaker-Levy,e,17.4674,35.4304,336.2970,3.880078,0.1289565,0.69939921,203.2907,05/03.0/2026,2000,g 11.5,4.0
# From MPC191609
182P/LONEOS,e,16.2295,72.4344,54.2491,2.947991,0.1947220,0.66409550,282.4294,05/03.0/2026,2000,g 18.0,4.0
# From MPEC 2026-FC3
183P/Korlevic-Juric,e,18.7255,3.2064,161.3697,4.723776,0.0959998,0.10376824,313.2020,05/03.0/2026,2000,g 12.5,2.0
# From MPC191609
184P/Lovas,e,4.5683,173.2205,186.5769,3.802115,0.1329432,0.54945721,268.1339,05/03.0/2026,2000,g 13.5,4.0
# From MPC191609
185P/Petriew,e,14.0025,214.1245,181.9243,3.100334,0.1805474,0.69908772,185.1425,05/03.0/2026,2000,g 15.0,4.0
# From MPC191609
186P/Garradd,e,28.7649,325.6419,267.1158,4.872594,0.0916355,0.12229644,250.1889,05/03.0/2026,2000,g  7.5,4.0
# From MPC191610
187P/LINEAR,e,13.6691,109.8475,132.2475,4.543092,0.1017834,0.15674833,294.3128,05/03.0/2026,2000,g  9.0,4.0
# From MPEC 2026-E43
188P/LINEAR-Mueller,e,10.5262,358.9111,26.8559,4.362642,0.1081632,0.41639381,2.1254,05/03.0/2026,2000,g 11.5,4.0
# From MPEC 2026-E44
190P/Mueller,e,2.1789,335.3990,50.4198,4.226268,0.1134406,0.52342197,56.1464,05/03.0/2026,2000,g 13.0,4.0
# From MPC191610
191P/McNaught,e,8.8394,98.1790,284.2455,3.641812,0.1418168,0.38476938,265.2717,05/03.0/2026,2000,g 13.0,4.0
# From MPC191610
192P/Shoemaker-Levy,e,24.5759,51.4960,313.0190,6.439215,0.0603191,0.77319006,42.7471,05/03.0/2026,2000,g 15.0,4.0
# From MPC191610
193P/LINEAR-NEAT,e,10.6770,335.1796,8.0775,3.580624,0.1454675,0.39239460,249.3896,05/03.0/2026,2000,g 14.0,4.0
# From MPC191610
194P/LINEAR,e,11.8032,349.4856,128.6790,4.124430,0.1176679,0.56338698,96.3196,05/03.0/2026,2000,g 16.0,4.0
# From MPEC 2026-G41
195P/Hill,e,36.4151,243.0852,250.6900,6.438975,0.0603224,0.31031337,16.2721,05/03.0/2026,2000,g  8.5,4.0
# From MPC191610
196P/Tichy,e,19.2873,24.1249,12.1502,3.807469,0.1326629,0.42709141,170.1169,05/03.0/2026,2000,g 13.5,4.0
# From MPC191611
197P/LINEAR,e,25.1418,66.0562,190.0133,2.912786,0.1982628,0.61667603,247.3205,05/03.0/2026,2000,g 16.5,2.0
# From MPC191611
198P/ODAS,e,1.3394,358.3161,69.2967,3.633419,0.1423085,0.44823217,23.1748,05/03.0/2026,2000,g 12.5,4.0
# From MPC191611
199P/Shoemaker,e,24.9408,92.3397,191.7172,5.869304,0.0693145,0.50410734,69.3206,05/03.0/2026,2000,g 10.0,4.0
# From MPC191611
200P/Larsen,e,12.0947,234.7350,134.4236,4.955742,0.0893390,0.33056325,220.8893,05/03.0/2026,2000,g  9.0,4.0
# From MPC191611
201P/LONEOS,e,5.7331,19.6659,41.6684,3.354344,0.1604326,0.63735683,288.8734,05/03.0/2026,2000,g 14.0,4.0
# From MPC191611
202P/Scotti,e,2.1416,177.2990,274.5542,4.099833,0.1187285,0.25088653,84.9595,05/03.0/2026,2000,g 13.5,4.0
# From MPC191611
203P/Korlevic,e,2.9762,290.2201,154.9875,4.668411,0.0977126,0.31627490,219.5123,05/03.0/2026,2000,g 14.5,2.0
# From MPC191611
204P/LINEAR-NEAT,e,6.5983,108.4721,356.7570,3.584471,0.1452334,0.48827059,183.3383,05/03.0/2026,2000,g 14.0,4.0
# From MPC191611
205P/Giacobini,e,15.3005,179.6240,154.1247,3.543494,0.1477599,0.56721164,232.3135,05/03.0/2026,2000,g 13.0,4.0
# From MPC191612
207P/NEAT,e,10.1961,198.0998,273.0840,3.887370,0.1285939,0.75851653,105.7072,05/03.0/2026,2000,g 16.0,4.0
# From MPC191612
208P/McMillan,e,4.3982,36.0814,311.5723,4.058719,0.1205371,0.37486612,74.1188,05/03.0/2026,2000,g 12.5,4.0
# From MPC191612
209P/LINEAR,e,21.2880,62.7471,152.4747,2.957003,0.1938324,0.67423020,127.4354,05/03.0/2026,2000,g 17.0,2.0
# From MPEC 2026-G41
210P/Christensen,e,10.2872,93.7967,345.9491,3.160089,0.1754507,0.83404074,28.2960,05/03.0/2026,2000,g 13.5,4.0
# From MPC191612
211P/Hill,e,18.9264,117.1001,4.3861,3.548690,0.1474355,0.34460653,192.4410,05/03.0/2026,2000,g 12.5,4.0
# From MPC191612
212P/NEAT,e,22.1484,97.9721,14.0955,3.904672,0.1277401,0.58672970,94.2442,05/03.0/2026,2000,g 17.0,2.0
# From MPC191612
213P/VanNess,e,10.7478,310.2372,8.0929,3.363187,0.1598003,0.41677326,141.9835,05/03.0/2026,2000,g 10.5,4.0
# From MPEC 2025-GB9
213P-B/Van Ness,e,10.7465,310.2354,8.1053,3.362918,0.1598195,0.41667731,142.0205,05/03.0/2026,2000,g 17.0,4.0
# From MPC191612
214P/LINEAR,e,15.1960,348.2256,190.1147,3.615487,0.1433685,0.48667676,188.3783,05/03.0/2026,2000,g 13.0,4.0
# From MPEC 2026-G41
215P/NEAT,e,10.5754,56.6838,262.0963,4.337510,0.1091047,0.16483731,257.9471,05/03.0/2026,2000,g 11.0,4.0
# From MPC191612
216P/LINEAR,e,9.0627,359.7589,151.8093,3.860876,0.1299198,0.44918262,110.0140,05/03.0/2026,2000,g 13.0,4.0
# From MPEC 2026-G41
217P/LINEAR,e,12.8715,125.3696,246.9967,3.946541,0.1257127,0.68963586,43.1130,05/03.0/2026,2000,g 12.0,4.0
# From MPEC 2026-G41
218P/LINEAR,e,2.7265,174.7219,61.4022,3.059273,0.1841945,0.63086843,10.9961,05/03.0/2026,2000,g 16.0,4.0
# From MPC191613
219P/LINEAR,e,11.3982,229.8637,109.1239,3.660374,0.1407395,0.35929884,113.2085,05/03.0/2026,2000,g 11.0,4.0
# From MPC191613
220P/McNaught,e,8.1207,150.0838,180.5657,3.120817,0.1787729,0.50035476,352.4691,05/03.0/2026,2000,g 15.0,4.0
# From MPC191613
221P/LINEAR,e,10.2912,221.3083,47.2443,3.381019,0.1585377,0.52225104,248.8308,05/03.0/2026,2000,g 14.5,4.0
# From MPC191613
223P/Skiff,e,27.0072,346.6863,37.9893,4.158235,0.1162359,0.41604094,307.9388,05/03.0/2026,2000,g 12.0,4.0
